[{"OBJECT_NAME":"STELLA","OBJECT_ID":"1993-061B","EPOCH":"2026-03-09T22:50:14.153280","MEAN_MOTION":14.2746756,"ECCENTRICITY":0.00067535,"INCLINATION":98.784,"RA_OF_ASC_NODE":132.7988,"ARG_OF_PERICENTER":156.9855,"MEAN_ANOMALY":327.7404,"EPHEMERIS_TYPE":0,"CLASSIFICATION_TYPE":"U","NORAD_CAT_ID":22824,"ELEMENT_SET_NO":999,"REV_AT_EPOCH":69061,"BSTAR":7.617075e-6,"MEAN_MOTION_DOT":-2.6e-7,"MEAN_MOTION_DDOT":0},{"OBJECT_NAME":"COSMOS 1275 DEB","OBJECT_ID":"1981-053GY","EPOCH":"2026-03-09T21:13:46.696800","MEAN_MOTION":14.35475417,"ECCENTRICITY":0.00390844,"INCLINATION":82.9429,"RA_OF_ASC_NODE":314.1775,"ARG_OF_PERICENTER":336.893,"MEAN_ANOMALY":145.299,"EPHEMERIS_TYPE":0,"CLASSIFICATION_TYPE":"U","NORAD_CAT_ID":13804,"ELEMENT_SET_NO":999,"REV_AT_EPOCH":20655,"BSTAR":0.0024419196,"MEAN_MOTION_DOT":7.099e-5,"MEAN_MOTION_DDOT":0}]
